MEAN_MOTION;ECCENTRICITY;INCLINATION;RA_OF_ASC_NODE;ARG_OF_PERICENTER;MEAN_ANOMALY;BSTAR;MEAN_MOTION_DOT;MEAN_MOTION_DDOT;TYPE
15.29076458;0.0004924;28.4527;325.1025;226.074;133.9448;1.5793E-5;6.83E-6;0;Amateur
15.29076513;0.0004921;28.4527;324.6574;226.8342;133.1842;1.5766E-5;6.82E-6;0;Amateur
15.29077343;0.0004881;28.4525;317.9821;238.2095;121.8025;1.5795E-5;6.83E-6;0;Amateur
15.29077496;0.0004874;28.4525;317.092;239.7529;120.2584;1.5936E-5;6.87E-6;0;Amateur
15.29078522;0.0004852;28.4524;311.3066;249.7003;110.307;1.7169E-5;7.23E-6;0;Amateur
15.29078612;0.0004842;28.4524;310.4166;251.1891;108.8179;1.6923E-5;7.16E-6;0;Amateur
15.29079467;0.0004837;28.4523;305.0762;260.3686;99.6363;1.7443E-5;7.31E-6;0;Amateur
15.29079592;0.0004836;28.4523;304.6312;261.1611;98.8437;1.7703E-5;7.39E-6;0;Amateur
15.29080091;0.0004834;28.4522;299.7359;269.6173;90.3868;1.6725E-5;7.1E-6;0;Amateur
15.29080129;0.0004833;28.4522;299.2908;270.3832;89.621;1.656E-5;7.05E-6;0;Amateur
15.29081133;0.0004838;28.452;291.7251;283.4121;76.5935;1.5687E-5;6.8E-6;0;Amateur
15.29081279;0.000484;28.4519;290.8349;284.956;75.0499;1.5709E-5;6.81E-6;0;Amateur
15.29081858;0.0004848;28.4518;286.3846;292.4753;67.5328;1.5698E-5;6.8E-6;0;Amateur
15.29082571;0.0004866;28.4517;281.9341;300.1159;59.8954;1.6379E-5;7.0E-6;0;Amateur
15.29083264;0.0004873;28.4516;278.3739;306.2177;53.7967;1.7087E-5;7.21E-6;0;Amateur
15.29083826;0.0004925;28.4514;270.8082;319.1698;40.8528;1.407E-5;6.33E-6;0;Amateur
15.29083884;0.0004927;28.4514;270.3632;320.0051;40.0181;1.4065E-5;6.33E-6;0;Amateur
15.29084796;0.000499;28.4514;264.1325;330.5461;29.4852;1.4827E-5;6.55E-6;0;Amateur
15.2908503;0.0005015;28.4514;261.9071;334.3179;25.7167;1.4593E-5;6.48E-6;0;Amateur
15.29086294;0.0005069;28.4513;257.0117;342.6005;17.4415;1.8611E-5;7.65E-6;0;Amateur
15.29086566;0.000509;28.4513;254.7865;346.3016;13.7441;1.8723E-5;7.68E-6;0;Amateur
15.29086754;0.0005104;28.4513;252.5612;349.9636;10.0856;1.8336E-5;7.57E-6;0;Amateur
15.29087648;0.0005167;28.4512;245.8855;1.0176;359.0429;1.8797E-5;7.7E-6;0;Amateur
15.29088575;0.0005245;28.4513;238.7649;12.4434;347.629;1.8494E-5;7.62E-6;0;Amateur
15.29088705;0.0005251;28.4513;237.8748;13.8557;346.2181;1.8455E-5;7.61E-6;0;Amateur
15.29089462;0.0005268;28.4513;231.644;23.7209;336.3628;1.7888E-5;7.44E-6;0;Amateur
15.29090192;0.0005299;28.4513;223.633;36.2933;323.8021;1.583E-5;6.84E-6;0;Amateur
15.29090812;0.0005317;28.4513;218.7375;43.9506;316.1511;1.5729E-5;6.81E-6;0;Amateur
15.29091342;0.0005335;28.4513;216.9574;46.6932;313.4108;1.687E-5;7.14E-6;0;Amateur
15.29092045;0.0005355;28.4513;211.6169;55.0534;305.0563;1.6723E-5;7.1E-6;0;Amateur
15.2909297;0.0005372;28.4512;204.4961;66.1363;293.9794;1.6404E-5;7.01E-6;0;Amateur
15.29093033;0.0005363;28.4513;204.051;66.914;293.202;1.6409E-5;7.01E-6;0;Amateur
15.29094106;0.0005371;28.4513;198.2654;75.8484;284.2708;1.7703E-5;7.39E-6;0;Amateur
15.29095374;0.0005385;28.4512;191.5897;86.1307;273.9903;1.9209E-5;7.83E-6;0;Amateur
15.29095344;0.0005389;28.4513;191.1447;86.714;273.4071;1.8737E-5;7.69E-6;0;Amateur
15.2909683;0.0005386;28.4513;184.4689;97.0382;263.0826;2.1042E-5;8.36E-6;0;Amateur
15.29098142;0.0005377;28.4513;177.3482;107.9209;252.1973;2.1556E-5;8.51E-6;0;Amateur
15.29098206;0.0005369;28.4513;176.9031;108.5748;251.543;2.1499E-5;8.49E-6;0;Amateur
15.29099595;0.0005319;28.4515;168.4473;121.4553;238.6562;2.0574E-5;8.22E-6;0;Amateur
15.29099595;0.0005319;28.4515;168.4473;121.4553;238.6562;2.0574E-5;8.22E-6;0;Amateur
15.29100842;0.0005272;28.4516;161.7717;131.9556;228.1489;2.0131E-5;8.1E-6;0;Amateur
15.29101554;0.0005267;28.4516;159.5466;135.4045;224.6975;2.2198E-5;8.7E-6;0;Amateur
15.2910198;0.0005259;28.4516;157.3212;139.1168;220.9823;2.1795E-5;8.58E-6;0;Amateur
15.29103098;0.0005229;28.4516;152.4257;146.7158;213.3766;2.2838E-5;8.88E-6;0;Amateur
15.29104113;0.0005195;28.4516;148.4202;152.9506;207.1361;2.3471E-5;9.07E-6;0;Amateur
15.29105173;0.0005178;28.4516;144.4147;159.3345;200.7461;2.4888E-5;9.48E-6;0;Amateur
15.29105686;0.0005149;28.4516;141.7444;163.4707;196.6057;2.4489E-5;9.37E-6;0;Amateur
15.29106694;0.0005119;28.4516;136.8488;171.3254;188.743;2.4555E-5;9.39E-6;0;Amateur
15.29107045;0.0005101;28.4516;135.0684;174.2187;185.8467;2.4257E-5;9.3E-6;0;Amateur
15.29108361;0.0005043;28.4517;128.3925;185.006;175.0485;2.3567E-5;9.1E-6;0;Amateur
15.29108828;0.0005005;28.4517;123.4969;192.9086;167.1381;2.0214E-5;8.12E-6;0;Amateur
15.2910983;0.0004976;28.4518;118.6012;200.9323;159.1068;2.0641E-5;8.25E-6;0;Amateur
15.29110632;0.0004937;28.4519;115.0406;206.9141;153.1198;2.0842E-5;8.31E-6;0;Amateur
15.29111067;0.0004911;28.452;110.145;214.9686;145.0587;1.7916E-5;7.45E-6;0;Amateur
15.29111404;0.0004894;28.4521;108.3647;218.0142;142.0108;1.7895E-5;7.45E-6;0;Amateur
15.29112323;0.0004889;28.4522;103.469;226.3183;133.7007;1.7976E-5;7.47E-6;0;Amateur
15.29113695;0.0004864;28.4524;96.7931;237.7534;122.259;1.9199E-5;7.83E-6;0;Amateur
15.29114742;0.0004844;28.4526;90.1173;249.0635;110.9441;1.8723E-5;7.69E-6;0;Amateur
15.29115975;0.0004818;28.4528;83.4415;260.5344;99.4707;1.9332E-5;7.87E-6;0;Amateur
15.29116923;0.0004819;28.453;77.6558;270.4046;89.5997;1.9321E-5;7.86E-6;0;Amateur
15.29117373;0.0004818;28.4531;74.9854;275.1633;84.8412;1.9415E-5;7.89E-6;0;Amateur
15.29118137;0.0004822;28.4532;70.0899;283.4052;76.6005;1.9473E-5;7.91E-6;0;Amateur
15.29118931;0.0004825;28.4533;65.6394;291.027;68.9809;1.9979E-5;8.05E-6;0;Amateur
15.29119219;0.0004836;28.4534;63.4142;294.887;65.1223;1.9712E-5;7.98E-6;0;Amateur
15.29119972;0.0004845;28.4535;58.9637;302.4611;57.5516;2.0163E-5;8.11E-6;0;Amateur
15.29120512;0.0004855;28.4536;57.1836;305.5301;54.4841;2.1556E-5;8.51E-6;0;Amateur
15.29120597;0.0004867;28.4537;54.9583;309.4314;50.585;2.0289E-5;8.14E-6;0;Amateur
15.291212;0.0004867;28.4537;52.2881;313.8478;46.1715;2.1294E-5;8.44E-6;0;Amateur
15.29121535;0.000488;28.4538;50.0628;317.5408;42.481;2.1185E-5;8.41E-6;0;Amateur
15.29122292;0.0004899;28.4539;45.1675;325.8716;34.1563;2.0975E-5;8.34E-6;0;Amateur
15.29122553;0.0004936;28.4541;41.6071;332.0438;27.9892;1.9344E-5;7.87E-6;0;Amateur
15.29123098;0.0004947;28.4541;38.492;337.2574;22.7802;1.963E-5;7.95E-6;0;Amateur
15.29123637;0.0004996;28.4542;32.2615;347.6908;12.3565;1.7021E-5;7.19E-6;0;Amateur
15.29124173;0.0004996;28.4542;31.8165;348.4174;11.6306;1.9772E-5;7.99E-6;0;Amateur
15.2912522;0.0005056;28.4544;25.141;359.4854;0.5735;1.9834E-5;8.01E-6;0;Amateur
15.2912527;0.0005057;28.4544;24.696;0.1181;359.9414;1.9696E-5;7.97E-6;0;Amateur
15.29126121;0.0005101;28.4544;18.0204;11.0027;349.0679;1.8772E-5;7.7E-6;0;Amateur
15.29126335;0.000512;28.4545;16.6852;13.2014;346.8715;1.8746E-5;7.7E-6;0;Amateur
15.29127131;0.0005157;28.4545;11.3448;21.8563;338.2251;1.881E-5;7.71E-6;0;Amateur
15.29128239;0.0005187;28.4546;4.6692;32.4853;327.6061;1.9472E-5;7.91E-6;0;Amateur
15.29128386;0.0005182;28.4546;3.334;34.6224;325.4708;1.9172E-5;7.82E-6;0;Amateur
15.29129449;0.0005225;28.4546;357.5485;43.7781;316.3228;1.9957E-5;8.05E-6;0;Amateur
15.29129579;0.0005238;28.4546;356.6584;45.1465;314.9555;1.992E-5;8.04E-6;0;Amateur
15.29130536;0.0005268;28.4547;350.8729;54.2166;305.8918;1.9912E-5;8.04E-6;0;Amateur
15.29130651;0.0005265;28.4547;349.9827;55.5793;304.53;1.9762E-5;7.99E-6;0;Amateur
15.29131522;0.0005295;28.4547;344.6421;64.05;296.0641;1.979E-5;8.0E-6;0;Amateur
15.29131727;0.0005291;28.4547;344.1971;64.7366;295.3777;2.0644E-5;8.25E-6;0;Amateur
15.29132425;0.0005313;28.4547;337.5214;75.1676;284.9507;1.8114E-5;7.51E-6;0;Amateur
15.29133797;0.0005329;28.4547;330.4005;86.4393;273.6812;1.8952E-5;7.76E-6;0;Amateur
15.29133864;0.0005316;28.4547;329.9553;87.2123;272.908;1.8898E-5;7.74E-6;0;Amateur
15.29134916;0.0005328;28.4546;323.7245;96.9401;263.18;1.8621E-5;7.66E-6;0;Amateur
15.29135544;0.0005339;28.4546;319.2741;103.7039;256.4151;1.7998E-5;7.48E-6;0;Amateur
15.29135944;0.0005346;28.4546;316.6036;107.7972;252.3207;1.7421E-5;7.31E-6;0;Amateur
15.29137243;0.0005343;28.4545;309.9277;118.3004;241.813;1.8481E-5;7.62E-6;0;Amateur
15.29138552;0.0005327;28.4545;303.2519;128.409;231.6984;1.9293E-5;7.86E-6;0;Amateur
15.29138779;0.000532;28.4545;301.9166;130.3995;229.7065;1.9205E-5;7.83E-6;0;Amateur
15.2914068;0.0005308;28.4545;296.5761;138.5886;221.5112;2.4503E-5;9.38E-6;0;Amateur
15.29140935;0.0005297;28.4545;295.2409;140.6161;219.482;2.4383E-5;9.34E-6;0;Amateur
15.29141668;0.0005273;28.4545;289.9004;148.834;211.2569;2.2127E-5;8.69E-6;0;Amateur
15.29143248;0.0005228;28.4545;283.2246;159.4342;200.6464;2.3266E-5;9.02E-6;0;Amateur
15.29143504;0.0005213;28.4545;281.8893;161.5499;198.5285;2.2998E-5;8.94E-6;0;Amateur
15.29145335;0.0005173;28.4546;276.5488;170.0735;189.9963;2.661E-5;9.99E-6;0;Amateur
15.29145692;0.000515;28.4546;274.7686;172.9795;187.0873;2.6176E-5;9.87E-6;0;Amateur
15.29146698;0.0005105;28.4546;269.8731;180.7719;179.2868;2.4849E-5;9.48E-6;0;Amateur
15.29148052;0.0005046;28.4546;263.6425;190.8641;169.1845;2.3864E-5;9.19E-6;0;Amateur
15.29148015;0.0005041;28.4546;263.1974;191.61;168.4379;2.304E-5;8.95E-6;0;Amateur
15.29149335;0.000499;28.4546;256.5216;202.9469;157.0904;2.1751E-5;8.58E-6;0;Amateur
15.29150534;0.000494;28.4546;249.8458;214.0017;146.0262;2.007E-5;8.09E-6;0;Amateur
15.29150746;0.0004921;28.4546;248.0654;217.0291;142.9965;1.9045E-5;7.79E-6;0;Amateur
15.2915146;0.0004897;28.4546;243.1699;225.1917;134.828;1.7649E-5;7.38E-6;0;Amateur
15.29152623;0.0004867;28.4546;237.8292;234.1472;125.8671;1.8659E-5;7.68E-6;0;Amateur
15.29152639;0.0004862;28.4546;237.3841;234.8981;125.1159;1.8306E-5;7.57E-6;0;Amateur
15.29152781;0.0004858;28.4546;236.494;236.4411;123.5721;1.8175E-5;7.54E-6;0;Amateur
15.29153581;0.0004825;28.4546;229.8182;247.7772;112.2312;1.6342E-5;7.0E-6;0;Amateur
15.2915421;0.0004807;28.4547;224.0325;257.6619;102.3438;1.4968E-5;6.6E-6;0;Amateur
15.29154319;0.0004802;28.4546;223.1424;259.2016;100.8039;1.484E-5;6.56E-6;0;Amateur
15.29154706;0.0004795;28.4546;219.5819;265.3015;94.7032;1.4401E-5;6.44E-6;0;Amateur
15.29155033;0.0004793;28.4546;216.4665;270.6311;89.3735;1.3726E-5;6.24E-6;0;Amateur
